{"type":"FeatureCollection","features":[{"type":"Feature","geometry":{"type":"Polygon","coordinates":[[[-51.6409,-24.0462],[-51.6753,-24.002],[-51.6838,-23.9764],[-51.731,-23.9389],[-51.7959,-23.9201],[-51.7635,-23.8905],[-51.7345,-23.8416],[-51.7664,-23.8389],[-51.7663,-23.7942],[-51.7946,-23.7816],[-51.8835,-23.8067],[-51.9192,-23.726],[-51.9636,-23.6945],[-51.9399,-23.673],[-51.8882,-23.6451],[-51.8358,-23.632],[-51.7957,-23.6309],[-51.7936,-23.607],[-51.7561,-23.6001],[-51.7067,-23.5728],[-51.6448,-23.5759],[-51.6254,-23.5503],[-51.6288,-23.5102],[-51.6115,-23.4837],[-51.626,-23.4263],[-51.6276,-23.4087],[-51.6902,-23.3777],[-51.6767,-23.3739],[-51.5916,-23.283],[-51.5382,-23.2633],[-51.5191,-23.285],[-51.5004,-23.3424],[-51.4546,-23.3822],[-51.4423,-23.3631],[-51.3964,-23.3601],[-51.3496,-23.3899],[-51.3102,-23.3834],[-51.3102,-23.3835],[-51.3211,-23.4331],[-51.3092,-23.4714],[-51.3013,-23.5477],[-51.2898,-23.5639],[-51.2364,-23.5545],[-51.2197,-23.5874],[-51.2083,-23.6448],[-51.2421,-23.736],[-51.1673,-23.7791],[-51.1459,-23.7664],[-51.186,-23.8152],[-51.1785,-23.8395],[-51.184,-23.8714],[-51.1738,-23.924],[-51.1239,-23.9264],[-51.0819,-23.906],[-51.1126,-23.9427],[-51.0955,-23.988],[-51.0854,-24.0744],[-51.1332,-24.0696],[-51.178,-24.1004],[-51.2111,-24.1057],[-51.2344,-24.0865],[-51.2805,-24.0982],[-51.3129,-24.1295],[-51.3725,-24.1426],[-51.4478,-24.1387],[-51.4533,-24.1196],[-51.4647,-24.0958],[-51.5503,-24.0936],[-51.619,-24.0255],[-51.6409,-24.0462]]]},"properties":{"nome":"APUCARANA","municipios":["4101408","4101507","4103206","4103305","4103503","4103800","4106852","4107603","4112108","4113106","4114906","4115507","4115754","4117297","4122107","4122701"],"n_municipios":16}},{"type":"Feature","geometry":{"type":"Polygon","coordinates":[[[-49.2295,-25.3498],[-49.2799,-25.3511],[-49.3104,-25.3836],[-49.3402,-25.3495],[-49.3478,-25.3759],[-49.3835,-25.4189],[-49.4709,-25.3747],[-49.4734,-25.3259],[-49.5376,-25.2654],[-49.5759,-25.2426],[-49.5735,-25.1928],[-49.5553,-25.1781],[-49.5627,-25.1489],[-49.6017,-25.0875],[-49.5485,-25.0401],[-49.5986,-25.0106],[-49.6042,-24.9865],[-49.5749,-24.9594],[-49.5395,-24.9165],[-49.4988,-24.9053],[-49.5284,-24.8621],[-49.5389,-24.8188],[-49.5674,-24.7955],[-49.5298,-24.7156],[-49.5735,-24.668],[-49.6204,-24.6827],[-49.6415,-24.642],[-49.5917,-24.6363],[-49.5736,-24.6137],[-49.5392,-24.572],[-49.5107,-24.6142],[-49.4912,-24.5518],[-49.3592,-24.4777],[-49.3468,-24.4585],[-49.2757,-24.4169],[-49.2524,-24.4339],[-49.2505,-24.4454],[-49.2453,-24.4651],[-49.2957,-24.5003],[-49.2799,-24.5359],[-49.316,-24.5555],[-49.3036,-24.5969],[-49.312,-24.6635],[-49.2781,-24.693],[-49.2079,-24.7009],[-49.1857,-24.6728],[-49.1579,-24.6719],[-49.1298,-24.6819],[-49.1116,-24.6884],[-49.0103,-24.6544],[-48.9622,-24.6742],[-48.9123,-24.674],[-48.8404,-24.665],[-48.8108,-24.675],[-48.7771,-24.6957],[-48.7038,-24.6804],[-48.675,-24.7018],[-48.6166,-24.6687],[-48.5722,-24.6906],[-48.5381,-24.7262],[-48.5019,-24.746],[-48.5183,-24.781],[-48.5558,-24.8062],[-48.5677,-24.8488],[-48.5497,-24.8675],[-48.5664,-24.9168],[-48.5674,-24.9723],[-48.5981,-25.0033],[-48.5796,-25.0531],[-48.5563,-25.0843],[-48.6089,-25.093],[-48.6435,-25.1309],[-48.6821,-25.1205],[-48.7307,-25.0895],[-48.7605,-25.0916],[-48.7848,-25.1263],[-48.8197,-25.1323],[-48.8456,-25.1633],[-48.8302,-25.2326],[-48.8449,-25.31],[-48.8845,-25.2903],[-48.9064,-25.333],[-48.919,-25.3794],[-48.9425,-25.3866],[-48.9629,-25.4447],[-48.9435,-25.4772],[-48.9702,-25.5226],[-49.0244,-25.5506],[-49.071,-25.5397],[-49.1076,-25.5157],[-49.1456,-25.4727],[-49.1756,-25.4626],[-49.1852,-25.4715],[-49.2033,-25.4356],[-49.1935,-25.3903],[-49.2295,-25.3498]]]},"properties":{"nome":"AREA METROP.NORTE","municipios":["4100202","4100400","4103107","4104006","4104253","4105201","4105805","4111258","4119152","4119509","4120804","4122206","4127882","4128633"],"n_municipios":14}},{"type":"Feature","geometry":{"type":"Polygon","coordinates":[[[-49.4872,-26.1942],[-49.5017,-26.2199],[-49.5498,-26.2334],[-49.6031,-26.2267],[-49.654,-26.1869],[-49.6728,-26.1898],[-49.7486,-26.1246],[-49.8242,-26.0939],[-49.8638,-26.0547],[-49.8694,-26.0335],[-49.9341,-26.0189],[-49.9934,-26.0114],[-49.9678,-26.0051],[-49.9733,-25.9591],[-50.0112,-25.931],[-50.0131,-25.8947],[-50.0401,-25.879],[-50.0832,-25.8994],[-50.1434,-25.8875],[-50.2102,-25.8163],[-50.2282,-25.8128],[-50.1898,-25.7647],[-50.1632,-25.7593],[-50.1356,-25.6956],[-50.1307,-25.6604],[-50.0952,-25.6354],[-50.0653,-25.651],[-50.0268,-25.6043],[-49.986,-25.5997],[-49.9385,-25.6069],[-49.8792,-25.5717],[-49.877,-25.5444],[-49.8094,-25.5538],[-49.799,-25.4974],[-49.7672,-25.4667],[-49.7412,-25.4084],[-49.7566,-25.3606],[-49.8197,-25.2701],[-49.8492,-25.2339],[-49.8159,-25.2253],[-49.773,-25.1954],[-49.7308,-25.2244],[-49.6929,-25.1945],[-49.6827,-25.1653],[-49.7316,-25.1272],[-49.7428,-25.0792],[-49.7049,-25.0291],[-49.6657,-25.0006],[-49.6402,-25.0075],[-49.6042,-24.9865],[-49.5986,-25.0106],[-49.5485,-25.0401],[-49.6017,-25.0875],[-49.5627,-25.1489],[-49.5553,-25.1781],[-49.5735,-25.1928],[-49.5759,-25.2426],[-49.5376,-25.2654],[-49.4734,-25.3259],[-49.4709,-25.3747],[-49.3835,-25.4189],[-49.3834,-25.4858],[-49.3745,-25.5134],[-49.3396,-25.5132],[-49.3428,-25.5804],[-49.3599,-25.6432],[-49.3042,-25.616],[-49.271,-25.6122],[-49.2233,-25.562],[-49.226,-25.5387],[-49.1852,-25.4715],[-49.1756,-25.4626],[-49.1456,-25.4727],[-49.1076,-25.5157],[-49.071,-25.5397],[-49.0244,-25.5506],[-48.9702,-25.5226],[-48.9727,-25.5759],[-48.9533,-25.6422],[-48.9695,-25.6643],[-48.9734,-25.7265],[-48.9111,-25.757],[-48.8755,-25.7602],[-48.8522,-25.7968],[-48.8911,-25.8193],[-48.9097,-25.8121],[-48.9628,-25.8309],[-48.9749,-25.8897],[-48.9925,-25.9217],[-48.9545,-25.9654],[-48.9683,-25.9867],[-49.0202,-26.0157],[-49.0295,-26.0046],[-49.043,-26.0045],[-49.0738,-26.0011],[-49.1675,-26.0007],[-49.2345,-26.0307],[-49.3002,-26.1113],[-49.3217,-26.11],[-49.3608,-26.1374],[-49.3807,-26.1567],[-49.4292,-26.17],[-49.486,-26.1852],[-49.4872,-26.1942]]]},"properties":{"nome":"AREA METROP.SUL","municipios":["4100301","4101804","4102307","4104105","4104204","4106209","4107652","4113205","4114302","4119103","4121208","4122305","4125506","4127601"],"n_municipios":14}},{"type":"Feature","geometry":{"type":"Polygon","coordinates":[[[-53.457,-24.7437],[-53.5371,-24.7468],[-53.596,-24.6895],[-53.7154,-24.5751],[-53.7154,-24.4675],[-53.6916,-24.4402],[-53.6676,-24.3879],[-53.7041,-24.328],[-53.6927,-24.2842],[-53.6717,-24.2587],[-53.6976,-24.2387],[-53.6924,-24.2023],[-53.6666,-24.2088],[-53.5557,-24.0911],[-53.5191,-24.0504],[-53.4363,-24.112],[-53.4811,-24.2181],[-53.4681,-24.2212],[-53.4368,-24.2381],[-53.3621,-24.2517],[-53.3208,-24.1984],[-53.2402,-24.1664],[-53.2645,-24.2181],[-53.2574,-24.2325],[-53.2784,-24.2536],[-53.2897,-24.3063],[-53.2748,-24.3377],[-53.2472,-24.329],[-53.1671,-24.3639],[-53.1593,-24.3947],[-53.152,-24.4173],[-53.1635,-24.4904],[-53.1792,-24.5206],[-53.2054,-24.5353],[-53.2374,-24.589],[-53.2434,-24.6247],[-53.2672,-24.6223],[-53.2924,-24.5858],[-53.3335,-24.5857],[-53.3583,-24.6023],[-53.3863,-24.6525],[-53.4265,-24.6417],[-53.4482,-24.6894],[-53.457,-24.7437]]]},"properties":{"nome":"ASSIS CHATEAUBRIAN","municipios":["4102000","4103370","4108205","4110656","4112751","4116703","4127957"],"n_municipios":7}},{"type":"Feature","geometry":{"type":"Polygon","coordinates":[[[-52.662,-24.8942],[-52.7028,-24.8773],[-52.7471,-24.8753],[-52.7684,-24.8648],[-52.8505,-24.7926],[-52.8601,-24.7586],[-52.9197,-24.7621],[-52.9134,-24.7166],[-52.9635,-24.7048],[-52.979,-24.6699],[-52.9446,-24.6317],[-52.9205,-24.5631],[-52.873,-24.5112],[-52.8605,-24.4993],[-52.7671,-24.4947],[-52.7688,-24.4662],[-52.7334,-24.421],[-52.7373,-24.3875],[-52.7129,-24.3589],[-52.7015,-24.2988],[-52.6561,-24.2946],[-52.6276,-24.2417],[-52.6491,-24.2085],[-52.7019,-24.1395],[-52.7471,-24.0818],[-52.7667,-24.0291],[-52.7522,-24.0242],[-52.7386,-23.9945],[-52.6954,-23.9512],[-52.7056,-23.9278],[-52.6197,-23.9534],[-52.562,-23.8406],[-52.5704,-23.8106],[-52.5449,-23.7471],[-52.5188,-23.7762],[-52.483,-23.8381],[-52.4445,-23.807],[-52.2823,-23.6761],[-52.2641,-23.6428],[-52.2423,-23.6347],[-52.1908,-23.6446],[-52.1634,-23.6478],[-52.1571,-23.6813],[-52.1161,-23.6728],[-52.1115,-23.7055],[-52.0611,-23.731],[-52.0339,-23.7724],[-52.0438,-23.811],[-51.9963,-23.7906],[-52.0051,-23.8226],[-51.9587,-23.8573],[-51.9395,-23.9082],[-51.968,-23.9493],[-51.9461,-23.9742],[-51.9463,-24.0418],[-51.9178,-24.1038],[-51.9408,-24.1558],[-51.9927,-24.2027],[-51.9581,-24.2409],[-51.9538,-24.2468],[-51.9974,-24.2861],[-51.9885,-24.3207],[-52.0065,-24.3442],[-52.0221,-24.4119],[-52.034,-24.4141],[-52.0166,-24.4718],[-52.0447,-24.5338],[-52.0475,-24.5667],[-52.0946,-24.5968],[-52.1341,-24.6253],[-52.2074,-24.6177],[-52.2732,-24.643],[-52.3259,-24.6807],[-52.3706,-24.6955],[-52.3941,-24.7166],[-52.4252,-24.7127],[-52.4531,-24.7463],[-52.4896,-24.7398],[-52.5409,-24.7698],[-52.5372,-24.8401],[-52.6017,-24.8786],[-52.6558,-24.9294],[-52.662,-24.8942]]]},"properties":{"nome":"CAMPO MOURAO","municipios":["4100459","4101705","4102505","4103909","4104303","4106555","4107504","4107553","4107702","4110805","4113734","4114005","4116802","4118808","4121109","4122503"],"n_municipios":16}},{"type":"Feature","geometry":{"type":"Polygon","coordinates":[[[-53.5793,-25.5257],[-53.5763,-25.562],[-53.6042,-25.5618],[-53.6241,-25.5331],[-53.6818,-25.5048],[-53.7176,-25.5521],[-53.7759,-25.5558],[-53.7911,-25.6056],[-53.8181,-25.5897],[-53.8073,-25.54],[-53.791,-25.5086],[-53.813,-25.4847],[-53.8034,-25.4293],[-53.8154,-25.4069],[-53.7788,-25.327],[-53.9069,-25.2693],[-53.9005,-25.2009],[-53.9496,-25.1623],[-53.954,-25.1031],[-53.9655,-25.0765],[-54.0344,-24.9299],[-54.0446,-24.8907],[-53.9982,-24.9081],[-53.9104,-24.9085],[-53.9216,-24.9469],[-53.8961,-24.9842],[-53.8467,-24.9715],[-53.8113,-24.9766],[-53.7721,-24.9689],[-53.7325,-24.9996],[-53.6744,-24.9578],[-53.6844,-24.9398],[-53.6366,-24.9339],[-53.625,-24.8709],[-53.6546,-24.8678],[-53.691,-24.8132],[-53.6842,-24.7799],[-53.5744,-24.8032],[-53.5371,-24.7468],[-53.457,-24.7437],[-53.4482,-24.6894],[-53.4265,-24.6417],[-53.3863,-24.6525],[-53.3583,-24.6023],[-53.3335,-24.5857],[-53.2924,-24.5858],[-53.2672,-24.6223],[-53.2434,-24.6247],[-53.2374,-24.589],[-53.2054,-24.5353],[-53.1792,-24.5206],[-53.1364,-24.5374],[-53.1071,-24.5696],[-53.0854,-24.6111],[-53.0438,-24.6103],[-53.0444,-24.6504],[-53.0248,-24.667],[-52.979,-24.6699],[-52.9635,-24.7048],[-52.9134,-24.7166],[-52.9197,-24.7621],[-52.8601,-24.7586],[-52.8505,-24.7926],[-52.7684,-24.8648],[-52.7471,-24.8753],[-52.7791,-24.9018],[-52.7949,-25.0045],[-52.7632,-25.0148],[-52.7644,-25.0551],[-52.7213,-25.112],[-52.6631,-25.098],[-52.6689,-25.1445],[-52.6912,-25.1643],[-52.6609,-25.206],[-52.7217,-25.2125],[-52.7786,-25.2494],[-52.8307,-25.2523],[-52.84,-25.2735],[-52.8765,-25.2858],[-52.9163,-25.2794],[-52.9966,-25.3226],[-53.0325,-25.329],[-53.0826,-25.3537],[-53.1057,-25.3879],[-53.1154,-25.4796],[-53.1435,-25.5137],[-53.1888,-25.5157],[-53.195,-25.5635],[-53.2619,-25.5919],[-53.2799,-25.544],[-53.3289,-25.5391],[-53.3032,-25.4967],[-53.344,-25.4798],[-53.3388,-25.5136],[-53.3701,-25.5315],[-53.3869,-25.5058],[-53.4377,-25.5049],[-53.4789,-25.5315],[-53.5,-25.5499],[-53.5367,-25.5462],[-53.5503,-25.5096],[-53.5793,-25.5257]]]},"properties":{"nome":"CASCAVEL","municipios":["4101051","4103057","4103354","4103453","4104055","4104600","4104808","4105003","4105300","4106308","4109302","4109757","4110052","4113452","4123824","4124020","4127858","4128559"],"n_municipios":18}},{"type":"Feature","geometry":{"type":"Polygon","coordinates":[[[-52.6954,-23.9512],[-52.7386,-23.9945],[-52.7522,-24.0242],[-52.7667,-24.0291],[-52.7821,-24.0115],[-52.8725,-23.9923],[-52.9231,-23.988],[-52.9638,-23.9649],[-53.0264,-23.8637],[-52.9596,-23.7855],[-52.9582,-23.7428],[-52.9708,-23.7089],[-52.9992,-23.7076],[-53.0201,-23.6775],[-53.0168,-23.6115],[-53.0476,-23.547],[-53.0397,-23.4931],[-53.0236,-23.4763],[-53.0362,-23.3839],[-53.028,-23.3562],[-53.0255,-23.2911],[-52.9982,-23.2361],[-52.9556,-23.2286],[-52.9305,-23.2404],[-52.9352,-23.2625],[-52.9182,-23.2723],[-52.863,-23.2679],[-52.8459,-23.2781],[-52.7865,-23.2697],[-52.7637,-23.2959],[-52.7234,-23.3111],[-52.6901,-23.3112],[-52.638,-23.3317],[-52.6006,-23.3171],[-52.5735,-23.332],[-52.5398,-23.3666],[-52.4746,-23.4071],[-52.4645,-23.4546],[-52.422,-23.4697],[-52.4022,-23.5357],[-52.3626,-23.5575],[-52.3278,-23.5525],[-52.3247,-23.554],[-52.3048,-23.573],[-52.2942,-23.6185],[-52.2698,-23.6253],[-52.2641,-23.6428],[-52.2823,-23.6761],[-52.4445,-23.807],[-52.483,-23.8381],[-52.5188,-23.7762],[-52.5449,-23.7471],[-52.5704,-23.8106],[-52.562,-23.8406],[-52.6197,-23.9534],[-52.7056,-23.9278],[-52.6954,-23.9512]]]},"properties":{"nome":"CIANORTE","municipios":["4105508","4105607","4109104","4110409","4112405","4113007","4122602","4125555","4126108","4126801","4127205","4127908"],"n_municipios":12}},{"type":"Feature","geometry":{"type":"Polygon","coordinates":[[[-50.6008,-23.7428],[-50.6259,-23.7998],[-50.6457,-23.8209],[-50.6766,-23.8145],[-50.7331,-23.8233],[-50.7735,-23.8712],[-50.8049,-23.8764],[-50.8437,-23.8944],[-50.8574,-23.8684],[-50.8958,-23.8402],[-50.8991,-23.7956],[-50.8756,-23.767],[-50.8941,-23.7437],[-50.9154,-23.7144],[-50.8763,-23.6945],[-50.9203,-23.6646],[-50.9334,-23.6078],[-50.9304,-23.5653],[-50.9484,-23.5197],[-50.9535,-23.4162],[-50.9957,-23.3949],[-50.981,-23.3426],[-50.9932,-23.319],[-50.9634,-23.3034],[-50.9882,-23.254],[-50.967,-23.2373],[-50.969,-23.1968],[-50.9508,-23.1724],[-50.9596,-23.1479],[-50.9484,-23.1064],[-50.9772,-23.0948],[-50.9887,-23.0476],[-50.9413,-23.0314],[-50.9464,-22.9819],[-50.9784,-22.9633],[-50.9795,-22.9371],[-50.9333,-22.9089],[-50.9368,-22.8741],[-51.0044,-22.7937],[-50.9787,-22.7826],[-50.9277,-22.7977],[-50.8953,-22.7943],[-50.8424,-22.8314],[-50.8236,-22.8661],[-50.7931,-22.9051],[-50.7959,-22.9512],[-50.7098,-22.9534],[-50.6821,-22.9062],[-50.6373,-22.9069],[-50.6038,-22.9232],[-50.5772,-22.904],[-50.53,-22.9191],[-50.5268,-22.9348],[-50.4257,-22.9442],[-50.4164,-22.9128],[-50.3592,-22.9161],[-50.3402,-22.9481],[-50.3357,-22.9785],[-50.3479,-23.0391],[-50.37,-23.0595],[-50.2501,-23.1011],[-50.2406,-23.1355],[-50.2094,-23.1876],[-50.2249,-23.2244],[-50.2505,-23.2461],[-50.3042,-23.2592],[-50.346,-23.2999],[-50.3589,-23.2854],[-50.4397,-23.2812],[-50.4669,-23.2602],[-50.468,-23.2603],[-50.4828,-23.3256],[-50.4492,-23.3754],[-50.4506,-23.4265],[-50.4121,-23.4638],[-50.4279,-23.4825],[-50.4016,-23.5408],[-50.3876,-23.5979],[-50.4248,-23.6276],[-50.4409,-23.6591],[-50.419,-23.7064],[-50.4441,-23.7483],[-50.4752,-23.7503],[-50.5193,-23.7661],[-50.5586,-23.7481],[-50.6008,-23.7428]]]},"properties":{"nome":"CORNELIO PROCOPIO","municipios":["4101903","4102406","4106001","4106407","4111001","4112702","4113403","4116604","4117008","4117214","4121307","4123105","4123204","4123907","4124301","4124707","4126009","4126405","4128401"],"n_municipios":19}},{"type":"Feature","geometry":{"type":"Polygon","coordinates":[[[-49.2295,-25.3498],[-49.1935,-25.3903],[-49.2033,-25.4356],[-49.1852,-25.4715],[-49.226,-25.5387],[-49.2233,-25.562],[-49.271,-25.6122],[-49.3042,-25.616],[-49.3599,-25.6432],[-49.3428,-25.5804],[-49.3396,-25.5132],[-49.3745,-25.5134],[-49.3834,-25.4858],[-49.3835,-25.4189],[-49.3478,-25.3759],[-49.3402,-25.3495],[-49.3104,-25.3836],[-49.2799,-25.3511],[-49.2295,-25.3498]]]},"properties":{"nome":"CURITIBA","municipios":["4106902"],"n_municipios":1}},{"type":"Feature","geometry":{"type":"Polygon","coordinates":[[[-53.1776,-25.87],[-53.1881,-25.9037],[-53.2405,-25.953],[-53.2319,-25.987],[-53.325,-25.9631],[-53.3455,-25.9466],[-53.3469,-25.9268],[-53.3551,-25.8778],[-53.374,-25.8541],[-53.3761,-25.8038],[-53.3513,-25.7816],[-53.3889,-25.6924],[-53.4047,-25.6532],[-53.4364,-25.6284],[-53.4792,-25.6411],[-53.5,-25.5499],[-53.4789,-25.5315],[-53.4377,-25.5049],[-53.3869,-25.5058],[-53.3701,-25.5315],[-53.3388,-25.5136],[-53.344,-25.4798],[-53.3032,-25.4967],[-53.3289,-25.5391],[-53.2799,-25.544],[-53.2619,-25.5919],[-53.195,-25.5635],[-53.1888,-25.5157],[-53.1435,-25.5137],[-53.1348,-25.558],[-53.0775,-25.5394],[-53.0689,-25.5666],[-53.0008,-25.5345],[-52.9862,-25.5687],[-52.9547,-25.5548],[-52.9074,-25.5643],[-52.8798,-25.6092],[-52.857,-25.6029],[-52.84,-25.6334],[-52.8551,-25.6586],[-52.8484,-25.7037],[-52.8116,-25.7403],[-52.867,-25.7686],[-52.9444,-25.7825],[-52.9787,-25.7817],[-52.9902,-25.8136],[-53.0262,-25.8581],[-53.0798,-25.8771],[-53.1204,-25.8716],[-53.1463,-25.8262],[-53.1491,-25.7769],[-53.195,-25.7817],[-53.1805,-25.8054],[-53.1776,-25.87]]]},"properties":{"nome":"DOIS VIZINHOS","municipios":["4103024","4106571","4107207","4116950","4117255","4123006","4125209"],"n_municipios":7}},{"type":"Feature","geometry":{"type":"Polygon","coordinates":[[[-53.94,-25.5716],[-53.9912,-25.5861],[-54.0108,-25.5665],[-54.0453,-25.5852],[-54.1198,-25.5533],[-54.0966,-25.5214],[-54.1157,-25.4985],[-54.144,-25.521],[-54.1631,-25.5426],[-54.1971,-25.5351],[-54.2031,-25.5805],[-54.2579,-25.5936],[-54.2963,-25.5576],[-54.3289,-25.5719],[-54.3455,-25.6049],[-54.3888,-25.5999],[-54.3971,-25.6397],[-54.4253,-25.6589],[-54.5025,-25.6144],[-54.5361,-25.6207],[-54.5529,-25.5882],[-54.5935,-25.5922],[-54.6037,-25.4825],[-54.6191,-25.4507],[-54.5864,-25.3966],[-54.5254,-25.3315],[-54.4912,-25.278],[-54.4736,-25.2115],[-54.4478,-25.1688],[-54.4249,-25.1533],[-54.4595,-25.1021],[-54.4572,-25.0393],[-54.4015,-25.0339],[-54.2994,-25.0208],[-54.1644,-25.0177],[-54.1683,-25.0305],[-54.0699,-25.0376],[-54.0127,-25.0296],[-53.9847,-25.0778],[-53.9655,-25.0765],[-53.954,-25.1031],[-53.9496,-25.1623],[-53.9005,-25.2009],[-53.9069,-25.2693],[-53.7788,-25.327],[-53.8154,-25.4069],[-53.8034,-25.4293],[-53.813,-25.4847],[-53.791,-25.5086],[-53.8073,-25.54],[-53.8958,-25.595],[-53.9165,-25.5829],[-53.94,-25.5716]]]},"properties":{"nome":"FOZ DO IGUACU","municipios":["4108304","4110953","4115606","4115804","4116059","4121257","4124053","4125704","4126355"],"n_municipios":9}},{"type":"Feature","geometry":{"type":"Polygon","coordinates":[[[-53.4309,-26.2821],[-53.4958,-26.3028],[-53.5573,-26.2871],[-53.5843,-26.2591],[-53.639,-26.2508],[-53.6514,-26.2068],[-53.6721,-26.1762],[-53.7103,-26.1306],[-53.7406,-26.1178],[-53.7342,-26.0428],[-53.7716,-26.0315],[-53.819,-25.9764],[-53.8422,-25.9322],[-53.8189,-25.9123],[-53.8336,-25.8954],[-53.8492,-25.8351],[-53.8219,-25.7993],[-53.8427,-25.7707],[-53.8488,-25.7412],[-53.8785,-25.7069],[-53.8498,-25.6908],[-53.8625,-25.6586],[-53.9318,-25.6226],[-53.9609,-25.6291],[-53.9912,-25.5861],[-53.94,-25.5716],[-53.9165,-25.5829],[-53.8958,-25.595],[-53.8073,-25.54],[-53.8181,-25.5897],[-53.7911,-25.6056],[-53.7759,-25.5558],[-53.7176,-25.5521],[-53.6818,-25.5048],[-53.6241,-25.5331],[-53.6042,-25.5618],[-53.5763,-25.562],[-53.5793,-25.5257],[-53.5503,-25.5096],[-53.5367,-25.5462],[-53.5,-25.5499],[-53.4792,-25.6411],[-53.4364,-25.6284],[-53.4047,-25.6532],[-53.3889,-25.6924],[-53.3513,-25.7816],[-53.3761,-25.8038],[-53.374,-25.8541],[-53.3551,-25.8778],[-53.3469,-25.9268],[-53.3455,-25.9466],[-53.325,-25.9631],[-53.2319,-25.987],[-53.2405,-25.953],[-53.1881,-25.9037],[-53.1776,-25.87],[-53.1805,-25.8054],[-53.195,-25.7817],[-53.1491,-25.7769],[-53.1463,-25.8262],[-53.1204,-25.8716],[-53.0798,-25.8771],[-53.0262,-25.8581],[-52.9902,-25.8136],[-52.9787,-25.7817],[-52.9444,-25.7825],[-52.9051,-25.8051],[-52.8957,-25.8307],[-52.8538,-25.8313],[-52.867,-25.8658],[-52.8428,-25.9115],[-52.8872,-25.9497],[-52.9181,-25.9425],[-52.9528,-25.9629],[-52.9416,-26.0071],[-52.893,-26.0025],[-52.9144,-26.0244],[-52.93,-26.0709],[-52.9331,-26.0888],[-52.82,-26.1467],[-52.8496,-26.1713],[-52.849,-26.2022],[-52.8788,-26.2419],[-52.9279,-26.2585],[-52.8979,-26.3057],[-52.9083,-26.3594],[-52.9377,-26.3622],[-52.9935,-26.3477],[-53.028,-26.3702],[-53.0932,-26.392],[-53.1602,-26.3506],[-53.1693,-26.3481],[-53.2644,-26.2893],[-53.2836,-26.2458],[-53.3044,-26.2584],[-53.3423,-26.2491],[-53.3761,-26.2416],[-53.4304,-26.2819],[-53.4308,-26.282],[-53.4309,-26.2821]]]},"properties":{"nome":"FRANCISCO BELTRAO","municipios":["4101002","4102604","4102752","4103156","4104501","4107405","4107850","4108403","4114351","4115408","4119004","4119251","4119806","4120358","4121406","4121604","4122800","4123808","4124400","4128609"],"n_municipios":20}},{"type":"Feature","geometry":{"type":"Polygon","coordinates":[[[-52.979,-24.6699],[-53.0248,-24.667],[-53.0444,-24.6504],[-53.0438,-24.6103],[-53.0854,-24.6111],[-53.1071,-24.5696],[-53.1364,-24.5374],[-53.1792,-24.5206],[-53.1635,-24.4904],[-53.152,-24.4173],[-53.1593,-24.3947],[-53.1671,-24.3639],[-53.2472,-24.329],[-53.2748,-24.3377],[-53.2897,-24.3063],[-53.2784,-24.2536],[-53.2574,-24.2325],[-53.2645,-24.2181],[-53.2402,-24.1664],[-53.3208,-24.1984],[-53.3119,-24.1712],[-53.326,-24.1295],[-53.321,-24.0916],[-53.2933,-24.0363],[-53.2376,-23.9598],[-53.2074,-23.9203],[-53.1639,-23.912],[-53.1072,-23.9286],[-53.0516,-23.9374],[-52.9638,-23.9649],[-52.9231,-23.988],[-52.8725,-23.9923],[-52.7821,-24.0115],[-52.7667,-24.0291],[-52.7471,-24.0818],[-52.7019,-24.1395],[-52.6491,-24.2085],[-52.6276,-24.2417],[-52.6561,-24.2946],[-52.7015,-24.2988],[-52.7129,-24.3589],[-52.7373,-24.3875],[-52.7334,-24.421],[-52.7688,-24.4662],[-52.7671,-24.4947],[-52.8605,-24.4993],[-52.873,-24.5112],[-52.9205,-24.5631],[-52.9446,-24.6317],[-52.979,-24.6699]]]},"properties":{"nome":"GOIOERE","municipios":["4103008","4108601","4112207","4112959","4115101","4116109","4120655","4121356","4128005"],"n_municipios":9}},{"type":"Feature","geometry":{"type":"Polygon","coordinates":[[[-51.9661,-25.9883],[-52.0084,-26.0107],[-52.0134,-25.9791],[-52.049,-25.938],[-52.0868,-25.9377],[-52.1095,-25.8976],[-52.1434,-25.8908],[-52.1686,-25.833],[-52.1232,-25.7747],[-52.1698,-25.749],[-52.214,-25.7565],[-52.2331,-25.7404],[-52.296,-25.7087],[-52.3274,-25.6786],[-52.3544,-25.7031],[-52.3953,-25.7003],[-52.3772,-25.6638],[-52.3429,-25.6418],[-52.3047,-25.6483],[-52.2748,-25.5767],[-52.2423,-25.5654],[-52.2174,-25.4849],[-52.1928,-25.4781],[-52.114,-25.452],[-52.0622,-25.3908],[-52.0091,-25.3645],[-52.0032,-25.3098],[-51.9962,-25.2935],[-52.0252,-25.2461],[-52.0575,-25.2416],[-52.0758,-25.2103],[-52.0822,-25.1371],[-52.087,-25.1013],[-52.1114,-25.1009],[-52.1176,-25.0571],[-52.147,-25.0426],[-52.1883,-24.9816],[-52.1499,-24.9682],[-52.1058,-24.9654],[-52.0777,-24.9974],[-52.0269,-24.9886],[-51.9785,-25.0215],[-51.9467,-25.006],[-51.8948,-25.0159],[-51.8337,-24.9975],[-51.8072,-25.019],[-51.7729,-25.0237],[-51.7495,-25.0422],[-51.6965,-25.0455],[-51.6591,-25.0135],[-51.617,-24.9987],[-51.5688,-24.9637],[-51.5191,-24.9435],[-51.4454,-24.8584],[-51.4597,-24.837],[-51.4101,-24.7563],[-51.3742,-24.7733],[-51.3328,-24.7596],[-51.3162,-24.782],[-51.3657,-24.8089],[-51.3715,-24.8741],[-51.3996,-24.9095],[-51.3279,-24.948],[-51.3294,-25.0166],[-51.2977,-25.0655],[-51.2568,-25.0485],[-51.2256,-25.0824],[-51.2454,-25.1041],[-51.2016,-25.1718],[-51.1897,-25.243],[-51.2098,-25.3051],[-51.1394,-25.3397],[-51.1349,-25.3683],[-51.1548,-25.3996],[-51.1344,-25.4225],[-51.0959,-25.4304],[-51.1024,-25.4618],[-51.1453,-25.4836],[-51.2077,-25.4692],[-51.3229,-25.4739],[-51.3415,-25.5248],[-51.2873,-25.5547],[-51.2708,-25.5917],[-51.2983,-25.6365],[-51.3248,-25.6238],[-51.3934,-25.6258],[-51.4048,-25.6439],[-51.3458,-25.6869],[-51.3668,-25.7343],[-51.3491,-25.7735],[-51.3234,-25.7865],[-51.303,-25.8331],[-51.3806,-25.8945],[-51.3815,-25.9341],[-51.4127,-25.9247],[-51.4492,-25.9514],[-51.5029,-25.9427],[-51.5505,-25.9869],[-51.6192,-26.0037],[-51.6677,-26.0103],[-51.7096,-25.9781],[-51.6808,-25.9328],[-51.7142,-25.9217],[-51.743,-25.9707],[-51.7395,-25.9946],[-51.7685,-26.0114],[-51.7955,-25.9994],[-51.8654,-26.0262],[-51.916,-25.9974],[-51.9661,-25.9883]]]},"properties":{"nome":"GUARAPUAVA","municipios":["4103958","4104428","4108452","4108650","4109401","4119301","4121752","4127965"],"n_municipios":8}},{"type":"Feature","geometry":{"type":"Polygon","coordinates":[[[-49.9704,-23.9564],[-49.9934,-23.9762],[-50.0421,-23.9897],[-50.0815,-23.9611],[-50.1183,-23.9621],[-50.1617,-23.9421],[-50.2208,-23.9975],[-50.2325,-23.9713],[-50.2903,-23.959],[-50.3219,-23.9444],[-50.3563,-23.8783],[-50.3836,-23.8592],[-50.3984,-23.9208],[-50.4261,-23.9578],[-50.4833,-23.9515],[-50.4793,-23.8799],[-50.4686,-23.855],[-50.4323,-23.8441],[-50.4187,-23.7844],[-50.4498,-23.7561],[-50.4752,-23.7503],[-50.4441,-23.7483],[-50.419,-23.7064],[-50.4409,-23.6591],[-50.4248,-23.6276],[-50.3876,-23.5979],[-50.2981,-23.5883],[-50.241,-23.5822],[-50.1909,-23.5702],[-50.1406,-23.4897],[-50.1304,-23.464],[-50.1647,-23.438],[-50.171,-23.3973],[-50.1062,-23.3932],[-50.0464,-23.413],[-50.0043,-23.4452],[-50.0186,-23.4802],[-49.9873,-23.5067],[-50.0041,-23.5337],[-50.0384,-23.5487],[-50.0243,-23.5667],[-49.9537,-23.5994],[-49.9027,-23.6005],[-49.8776,-23.6073],[-49.8503,-23.5714],[-49.8187,-23.5589],[-49.7371,-23.5603],[-49.6524,-23.5467],[-49.673,-23.6001],[-49.7806,-23.6121],[-49.7845,-23.6296],[-49.7479,-23.658],[-49.7381,-23.7141],[-49.7624,-23.7371],[-49.8256,-23.7656],[-49.8815,-23.8332],[-49.9235,-23.8438],[-49.9648,-23.8697],[-49.9731,-23.9021],[-49.9704,-23.9564]]]},"properties":{"nome":"IBAITI","municipios":["4106100","4107751","4109005","4109708","4111704","4112306","4119202","4126603","4127809"],"n_municipios":9}},{"type":"Feature","geometry":{"type":"Polygon","coordinates":[[[-50.707,-25.9952],[-50.7436,-25.9876],[-50.8543,-25.9949],[-50.8871,-26.0078],[-50.8975,-26.0572],[-50.9302,-26.0274],[-50.9528,-25.9766],[-50.9375,-25.9406],[-50.9722,-25.9329],[-51.0064,-25.9075],[-51.0059,-25.8665],[-51.0399,-25.8075],[-50.9824,-25.7844],[-50.9759,-25.7566],[-50.943,-25.7399],[-50.9564,-25.6866],[-50.9634,-25.6826],[-51.0097,-25.6746],[-51.0201,-25.7058],[-51.0532,-25.6991],[-51.1165,-25.7203],[-51.1321,-25.7632],[-51.1714,-25.7458],[-51.2578,-25.8066],[-51.2817,-25.7916],[-51.303,-25.8331],[-51.3234,-25.7865],[-51.3491,-25.7735],[-51.3668,-25.7343],[-51.3458,-25.6869],[-51.4048,-25.6439],[-51.3934,-25.6258],[-51.3248,-25.6238],[-51.2983,-25.6365],[-51.2708,-25.5917],[-51.2873,-25.5547],[-51.3415,-25.5248],[-51.3229,-25.4739],[-51.2077,-25.4692],[-51.1453,-25.4836],[-51.1024,-25.4618],[-51.0959,-25.4304],[-51.1344,-25.4225],[-51.1548,-25.3996],[-51.1349,-25.3683],[-51.1394,-25.3397],[-51.2098,-25.3051],[-51.1897,-25.243],[-51.2016,-25.1718],[-51.2454,-25.1041],[-51.2256,-25.0824],[-51.2568,-25.0485],[-51.2977,-25.0655],[-51.3294,-25.0166],[-51.3279,-24.948],[-51.3996,-24.9095],[-51.3715,-24.8741],[-51.3657,-24.8089],[-51.3162,-24.782],[-51.3328,-24.7596],[-51.2824,-24.7746],[-51.2227,-24.7727],[-51.1943,-24.7982],[-51.1564,-24.808],[-51.1168,-24.8665],[-51.1188,-24.901],[-51.0866,-24.9368],[-51.0569,-24.9385],[-51.0176,-24.9691],[-51.0005,-25.0038],[-50.9705,-25.0055],[-50.9528,-25.0715],[-50.9382,-25.0728],[-50.886,-25.0737],[-50.8471,-25.0961],[-50.7956,-25.1598],[-50.7688,-25.1592],[-50.7287,-25.1814],[-50.7519,-25.2589],[-50.8045,-25.2737],[-50.8129,-25.3526],[-50.7867,-25.3817],[-50.727,-25.3549],[-50.6707,-25.3677],[-50.6019,-25.4107],[-50.5994,-25.369],[-50.5641,-25.3091],[-50.5755,-25.2436],[-50.5431,-25.2147],[-50.4919,-25.2072],[-50.4485,-25.215],[-50.431,-25.2143],[-50.41,-25.169],[-50.3872,-25.151],[-50.3941,-25.119],[-50.3706,-25.097],[-50.3221,-25.1352],[-50.2735,-25.1465],[-50.2805,-25.2118],[-50.2668,-25.2369],[-50.2761,-25.2886],[-50.2874,-25.3189],[-50.277,-25.377],[-50.3052,-25.3804],[-50.3415,-25.454],[-50.3584,-25.5277],[-50.3585,-25.5278],[-50.4243,-25.5919],[-50.4252,-25.6321],[-50.4751,-25.6556],[-50.4561,-25.6833],[-50.49,-25.7346],[-50.5385,-25.7581],[-50.5932,-25.7598],[-50.6008,-25.7842],[-50.6266,-25.8483],[-50.677,-25.8736],[-50.657,-25.9173],[-50.6706,-25.9688],[-50.707,-25.9952]]]},"properties":{"nome":"IRATI","municipios":["4107736","4108957","4110201","4110706","4113908","4120606","4121505","4122008","4127007"],"n_municipios":9}},{"type":"Feature","geometry":{"type":"Polygon","coordinates":[[[-51.5022,-24.5748],[-51.5337,-24.554],[-51.5602,-24.575],[-51.6046,-24.5559],[-51.6621,-24.5846],[-51.7249,-24.5961],[-51.7571,-24.5294],[-51.8245,-24.4498],[-51.8457,-24.4195],[-51.8887,-24.4],[-51.916,-24.3259],[-51.9341,-24.3018],[-51.9329,-24.2642],[-51.9538,-24.2468],[-51.9581,-24.2409],[-51.9927,-24.2027],[-51.9408,-24.1558],[-51.9178,-24.1038],[-51.9463,-24.0418],[-51.9461,-23.9742],[-51.968,-23.9493],[-51.9395,-23.9082],[-51.9587,-23.8573],[-52.0051,-23.8226],[-51.9963,-23.7906],[-51.9485,-23.774],[-51.9192,-23.726],[-51.8835,-23.8067],[-51.7946,-23.7816],[-51.7663,-23.7942],[-51.7664,-23.8389],[-51.7345,-23.8416],[-51.7635,-23.8905],[-51.7959,-23.9201],[-51.731,-23.9389],[-51.6838,-23.9764],[-51.6753,-24.002],[-51.6409,-24.0462],[-51.619,-24.0255],[-51.5503,-24.0936],[-51.4647,-24.0958],[-51.4533,-24.1196],[-51.4478,-24.1387],[-51.3725,-24.1426],[-51.3338,-24.1589],[-51.2598,-24.2124],[-51.2073,-24.223],[-51.2039,-24.2459],[-51.1316,-24.2681],[-51.0983,-24.2996],[-51.098,-24.3258],[-51.0779,-24.3523],[-51.1044,-24.4147],[-51.1436,-24.4406],[-51.139,-24.4681],[-51.1661,-24.4885],[-51.1592,-24.5682],[-51.1315,-24.5808],[-51.1319,-24.6161],[-51.0795,-24.6443],[-51.064,-24.6914],[-51.0669,-24.8159],[-51.0288,-24.8551],[-51.0018,-24.8628],[-50.9629,-24.933],[-50.988,-24.964],[-51.0176,-24.9691],[-51.0569,-24.9385],[-51.0866,-24.9368],[-51.1188,-24.901],[-51.1168,-24.8665],[-51.1564,-24.808],[-51.1943,-24.7982],[-51.2227,-24.7727],[-51.2824,-24.7746],[-51.3328,-24.7596],[-51.3742,-24.7733],[-51.4101,-24.7563],[-51.4167,-24.7222],[-51.4719,-24.6475],[-51.4891,-24.6259],[-51.4549,-24.5811],[-51.4684,-24.555],[-51.5022,-24.5748]]]},"properties":{"nome":"IVAIPORA","municipios":["4101655","4101853","4104402","4108551","4108700","4111506","4112504","4113429","4113759","4114500","4122172","4122651","4125001","4125803"],"n_municipios":14}},{"type":"Feature","geometry":{"type":"Polygon","coordinates":[[[-50.1647,-23.438],[-50.1304,-23.464],[-50.1406,-23.4897],[-50.1909,-23.5702],[-50.241,-23.5822],[-50.2981,-23.5883],[-50.3876,-23.5979],[-50.4016,-23.5408],[-50.4279,-23.4825],[-50.4121,-23.4638],[-50.4506,-23.4265],[-50.4492,-23.3754],[-50.4828,-23.3256],[-50.468,-23.2603],[-50.4669,-23.2602],[-50.4397,-23.2812],[-50.3589,-23.2854],[-50.346,-23.2999],[-50.3042,-23.2592],[-50.2505,-23.2461],[-50.2249,-23.2244],[-50.2094,-23.1876],[-50.2406,-23.1355],[-50.2501,-23.1011],[-50.37,-23.0595],[-50.3479,-23.0391],[-50.3357,-22.9785],[-50.3402,-22.9481],[-50.2756,-22.9316],[-50.2432,-22.951],[-50.2039,-22.9528],[-50.1331,-22.9399],[-50.0528,-22.9055],[-50.0146,-22.9113],[-49.9862,-22.8975],[-49.9614,-22.9309],[-49.9742,-22.9545],[-49.9725,-22.9585],[-49.9545,-22.9784],[-49.9017,-22.9993],[-49.9116,-23.0511],[-49.8674,-23.0717],[-49.8337,-23.0659],[-49.8194,-23.077],[-49.8095,-23.0892],[-49.7892,-23.1033],[-49.7256,-23.1094],[-49.7165,-23.1484],[-49.6777,-23.1749],[-49.6538,-23.212],[-49.6271,-23.2818],[-49.6217,-23.3319],[-49.6379,-23.3495],[-49.5954,-23.3671],[-49.6025,-23.4085],[-49.5818,-23.429],[-49.5981,-23.4582],[-49.6214,-23.4933],[-49.6242,-23.5233],[-49.6524,-23.5467],[-49.7371,-23.5603],[-49.8187,-23.5589],[-49.8503,-23.5714],[-49.8776,-23.6073],[-49.9027,-23.6005],[-49.9537,-23.5994],[-50.0243,-23.5667],[-50.0384,-23.5487],[-50.0041,-23.5337],[-49.9873,-23.5067],[-50.0186,-23.4802],[-50.0043,-23.4452],[-50.0464,-23.413],[-50.1062,-23.3932],[-50.171,-23.3973],[-50.1647,-23.438]]]},"properties":{"nome":"JACAREZINHO","municipios":["4100103","4101101","4102703","4103602","4104709","4111803","4112801","4112900","4120705","4121802","4121901","4124103"],"n_municipios":12}},{"type":"Feature","geometry":{"type":"Polygon","coordinates":[[[-52.2174,-25.4849],[-52.2423,-25.5654],[-52.2748,-25.5767],[-52.3047,-25.6483],[-52.3429,-25.6418],[-52.3772,-25.6638],[-52.3953,-25.7003],[-52.4312,-25.6791],[-52.4671,-25.6787],[-52.5306,-25.646],[-52.5217,-25.6804],[-52.5442,-25.6962],[-52.5753,-25.6487],[-52.6193,-25.6296],[-52.6278,-25.655],[-52.6768,-25.6557],[-52.7153,-25.6649],[-52.7221,-25.6267],[-52.767,-25.6107],[-52.7832,-25.57],[-52.7851,-25.567],[-52.8001,-25.5956],[-52.857,-25.6029],[-52.8798,-25.6092],[-52.9074,-25.5643],[-52.9547,-25.5548],[-52.9862,-25.5687],[-53.0008,-25.5345],[-53.0689,-25.5666],[-53.0775,-25.5394],[-53.1348,-25.558],[-53.1435,-25.5137],[-53.1154,-25.4796],[-53.1057,-25.3879],[-53.0826,-25.3537],[-53.0325,-25.329],[-52.9966,-25.3226],[-52.9163,-25.2794],[-52.8765,-25.2858],[-52.84,-25.2735],[-52.8307,-25.2523],[-52.7786,-25.2494],[-52.7217,-25.2125],[-52.6609,-25.206],[-52.6912,-25.1643],[-52.6689,-25.1445],[-52.6631,-25.098],[-52.7213,-25.112],[-52.7644,-25.0551],[-52.7632,-25.0148],[-52.7949,-25.0045],[-52.7791,-24.9018],[-52.7471,-24.8753],[-52.7028,-24.8773],[-52.662,-24.8942],[-52.6558,-24.9294],[-52.5919,-24.9645],[-52.5683,-24.9661],[-52.5553,-25.0351],[-52.5138,-25.0251],[-52.4564,-25.0276],[-52.4117,-25.0186],[-52.4056,-25.0564],[-52.3532,-25.0675],[-52.3311,-25.025],[-52.2956,-24.9919],[-52.2471,-25.014],[-52.2405,-24.9914],[-52.1883,-24.9816],[-52.147,-25.0426],[-52.1176,-25.0571],[-52.1114,-25.1009],[-52.087,-25.1013],[-52.0822,-25.1371],[-52.0758,-25.2103],[-52.0575,-25.2416],[-52.0252,-25.2461],[-51.9962,-25.2935],[-52.0032,-25.3098],[-52.0091,-25.3645],[-52.0622,-25.3908],[-52.114,-25.452],[-52.1928,-25.4781],[-52.2174,-25.4849]]]},"properties":{"nome":"LARANJEIRAS DO SUL","municipios":["4104451","4107124","4107546","4113304","4115457","4117057","4120150","4120903","4122156","4128658"],"n_municipios":10}},{"type":"Feature","geometry":{"type":"Polygon","coordinates":[[[-53.0474,-23.2311],[-53.093,-23.2435],[-53.1294,-23.2208],[-53.2076,-23.2114],[-53.2036,-23.1949],[-53.2252,-23.2094],[-53.2018,-23.2417],[-53.2534,-23.2308],[-53.2985,-23.1986],[-53.3478,-23.2335],[-53.3763,-23.2398],[-53.3781,-23.2409],[-53.4142,-23.1913],[-53.4768,-23.2277],[-53.5157,-23.1975],[-53.5574,-23.216],[-53.582,-23.2262],[-53.6154,-23.211],[-53.6354,-23.2414],[-53.629,-23.2699],[-53.6987,-23.3058],[-53.7149,-23.2834],[-53.6993,-23.2349],[-53.6366,-23.125],[-53.634,-23.0034],[-53.6074,-22.9513],[-53.5708,-22.9285],[-53.5468,-22.8901],[-53.4848,-22.8639],[-53.4104,-22.8139],[-53.3798,-22.8044],[-53.3274,-22.7646],[-53.24,-22.7335],[-53.1854,-22.7187],[-53.1279,-22.6523],[-53.1052,-22.6219],[-53.0915,-22.6448],[-53.0385,-22.6184],[-53.0117,-22.5988],[-52.9724,-22.5705],[-52.9247,-22.5656],[-52.8584,-22.608],[-52.8154,-22.597],[-52.7829,-22.6021],[-52.7784,-22.6623],[-52.8157,-22.7094],[-52.8437,-22.7514],[-52.8493,-22.7824],[-52.8577,-22.821],[-52.8558,-22.8803],[-52.8768,-22.903],[-52.8863,-22.9408],[-52.8354,-22.9839],[-52.8159,-22.9678],[-52.7889,-23.0055],[-52.8259,-23.0581],[-52.8846,-23.023],[-52.9187,-23.0831],[-52.9042,-23.1791],[-52.9093,-23.2257],[-52.9305,-23.2404],[-52.9556,-23.2286],[-52.9982,-23.2361],[-53.0335,-23.2139],[-53.0267,-23.1954],[-53.0474,-23.2311]]]},"properties":{"nome":"LOANDA","municipios":["4107108","4111308","4113502","4115002","4117107","4119707","4120200","4121000","4123303","4123709","4123956","4125902"],"n_municipios":12}},{"type":"Feature","geometry":{"type":"Polygon","coordinates":[[[-51.3496,-23.3899],[-51.3964,-23.3601],[-51.4423,-23.3631],[-51.4546,-23.3822],[-51.5004,-23.3424],[-51.5191,-23.285],[-51.5382,-23.2633],[-51.5916,-23.283],[-51.6223,-23.2289],[-51.6094,-23.1518],[-51.593,-23.1306],[-51.595,-23.1162],[-51.6723,-23.0869],[-51.7494,-23.0392],[-51.7504,-23.0281],[-51.7947,-23.0058],[-51.7482,-22.9443],[-51.7173,-22.9308],[-51.7253,-22.8909],[-51.7637,-22.8491],[-51.8002,-22.831],[-51.7592,-22.8305],[-51.7704,-22.7776],[-51.7595,-22.7393],[-51.7251,-22.7011],[-51.7182,-22.669],[-51.6305,-22.6579],[-51.6279,-22.6582],[-51.5596,-22.6972],[-51.5172,-22.69],[-51.475,-22.6792],[-51.4464,-22.653],[-51.402,-22.6679],[-51.3736,-22.6581],[-51.3331,-22.6671],[-51.2982,-22.6735],[-51.2652,-22.6677],[-51.2137,-22.7237],[-51.176,-22.7388],[-51.1279,-22.76],[-51.0576,-22.7661],[-51.0044,-22.7937],[-50.9368,-22.8741],[-50.9333,-22.9089],[-50.9795,-22.9371],[-50.9784,-22.9633],[-50.9464,-22.9819],[-50.9413,-23.0314],[-50.9887,-23.0476],[-50.9772,-23.0948],[-50.9484,-23.1064],[-50.9596,-23.1479],[-50.9508,-23.1724],[-50.969,-23.1968],[-50.967,-23.2373],[-50.9882,-23.254],[-50.9634,-23.3034],[-50.9932,-23.319],[-50.981,-23.3426],[-50.9957,-23.3949],[-50.9535,-23.4162],[-50.9484,-23.5197],[-50.9304,-23.5653],[-50.9334,-23.6078],[-50.9203,-23.6646],[-50.8763,-23.6945],[-50.9154,-23.7144],[-50.8941,-23.7437],[-50.8756,-23.767],[-50.8991,-23.7956],[-50.9609,-23.867],[-50.9515,-23.8839],[-51.0165,-23.9187],[-51.0819,-23.906],[-51.1239,-23.9264],[-51.1738,-23.924],[-51.184,-23.8714],[-51.1785,-23.8395],[-51.186,-23.8152],[-51.1459,-23.7664],[-51.1673,-23.7791],[-51.2421,-23.736],[-51.2083,-23.6448],[-51.2197,-23.5874],[-51.2364,-23.5545],[-51.2898,-23.5639],[-51.3013,-23.5477],[-51.3092,-23.4714],[-51.3211,-23.4331],[-51.3102,-23.3835],[-51.3102,-23.3834],[-51.3496,-23.3899]]]},"properties":{"nome":"LONDRINA","municipios":["4100806","4102802","4103404","4103701","4105102","4108007","4109203","4109807","4111902","4113700","4113809","4116000","4119657","4120002","4120333","4120507","4122404","4126504","4126678"],"n_municipios":19}},{"type":"Feature","geometry":{"type":"Polygon","coordinates":[[[-51.9636,-23.6945],[-51.9192,-23.726],[-51.9485,-23.774],[-51.9963,-23.7906],[-52.0438,-23.811],[-52.0339,-23.7724],[-52.0611,-23.731],[-52.1115,-23.7055],[-52.1161,-23.6728],[-52.1571,-23.6813],[-52.1634,-23.6478],[-52.1908,-23.6446],[-52.2423,-23.6347],[-52.2641,-23.6428],[-52.2698,-23.6253],[-52.2942,-23.6185],[-52.3048,-23.573],[-52.3247,-23.554],[-52.3278,-23.5525],[-52.3626,-23.5575],[-52.4022,-23.5357],[-52.422,-23.4697],[-52.4212,-23.4133],[-52.4212,-23.2661],[-52.4208,-23.2508],[-52.3988,-23.2788],[-52.3439,-23.3001],[-52.244,-23.2682],[-52.2187,-23.248],[-52.1882,-23.2623],[-52.1444,-23.2121],[-52.1081,-23.1902],[-52.1536,-23.104],[-52.0828,-23.0905],[-52.0275,-23.0596],[-52.0369,-23.0221],[-52.0237,-23.0022],[-52.0425,-22.9493],[-52.0585,-22.9538],[-52.0752,-22.9176],[-52.0662,-22.8769],[-52.0777,-22.8667],[-52.0692,-22.8097],[-52.0886,-22.7697],[-52.0538,-22.7535],[-52.056,-22.7293],[-52.0579,-22.695],[-52.0334,-22.6773],[-51.9792,-22.7483],[-51.9205,-22.8033],[-51.9058,-22.8362],[-51.8671,-22.8301],[-51.8665,-22.6877],[-51.8558,-22.6317],[-51.7716,-22.6141],[-51.733,-22.6286],[-51.7182,-22.669],[-51.7251,-22.7011],[-51.7595,-22.7393],[-51.7704,-22.7776],[-51.7592,-22.8305],[-51.8002,-22.831],[-51.7637,-22.8491],[-51.7253,-22.8909],[-51.7173,-22.9308],[-51.7482,-22.9443],[-51.7947,-23.0058],[-51.7504,-23.0281],[-51.7494,-23.0392],[-51.6723,-23.0869],[-51.595,-23.1162],[-51.593,-23.1306],[-51.6094,-23.1518],[-51.6223,-23.2289],[-51.5916,-23.283],[-51.6767,-23.3739],[-51.6902,-23.3777],[-51.6276,-23.4087],[-51.626,-23.4263],[-51.6115,-23.4837],[-51.6288,-23.5102],[-51.6254,-23.5503],[-51.6448,-23.5759],[-51.7067,-23.5728],[-51.7561,-23.6001],[-51.7936,-23.607],[-51.7957,-23.6309],[-51.8358,-23.632],[-51.8882,-23.6451],[-51.9399,-23.673],[-51.9636,-23.6945]]]},"properties":{"nome":"MARINGA","municipios":["4101150","4102109","4102208","4105904","4107306","4107801","4107900","4108106","4110003","4111100","4111605","4113601","4114104","4114203","4114807","4115200","4116307","4116406","4117404","4117503","4120408","4123402","4124509","4125308","4126256"],"n_municipios":25}},{"type":"Feature","geometry":{"type":"Polygon","coordinates":[[[-48.6821,-25.9837],[-48.9605,-25.9808],[-48.9504,-25.99],[-48.9683,-25.9867],[-48.9545,-25.9654],[-48.9925,-25.9217],[-48.9749,-25.8897],[-48.9628,-25.8309],[-48.9097,-25.8121],[-48.8911,-25.8193],[-48.8522,-25.7968],[-48.8755,-25.7602],[-48.9111,-25.757],[-48.9734,-25.7265],[-48.9695,-25.6643],[-48.9533,-25.6422],[-48.9727,-25.5759],[-48.9702,-25.5226],[-48.9435,-25.4772],[-48.9629,-25.4447],[-48.9425,-25.3866],[-48.919,-25.3794],[-48.9064,-25.333],[-48.8845,-25.2903],[-48.8449,-25.31],[-48.8302,-25.2326],[-48.8456,-25.1633],[-48.8197,-25.1323],[-48.7848,-25.1263],[-48.7605,-25.0916],[-48.7307,-25.0895],[-48.6821,-25.1205],[-48.6435,-25.1309],[-48.6089,-25.093],[-48.5563,-25.0843],[-48.5302,-25.1008],[-48.4809,-25.037],[-48.474,-25.0126],[-48.4119,-24.9804],[-48.3799,-24.9959],[-48.3512,-25.0365],[-48.2846,-25.0392],[-48.2696,-24.9975],[-48.2397,-24.9914],[-48.2086,-25.0319],[-48.2161,-25.0767],[-48.1816,-25.1338],[-48.1585,-25.1499],[-48.1825,-25.205],[-48.113,-25.2509],[-48.0235,-25.2309],[-48.0968,-25.2972],[-48.0961,-25.3089],[-48.1623,-25.375],[-48.1921,-25.4176],[-48.214,-25.473],[-48.2393,-25.4653],[-48.3097,-25.4933],[-48.2769,-25.5141],[-48.3199,-25.5866],[-48.3583,-25.5859],[-48.4042,-25.614],[-48.4362,-25.6494],[-48.4771,-25.7137],[-48.5496,-25.8523],[-48.5953,-25.9768],[-48.6821,-25.9837]]]},"properties":{"nome":"PARANAGUA","municipios":["4101200","4109500","4109609","4115705","4116208","4118204","4119954"],"n_municipios":7}},{"type":"Feature","geometry":{"type":"Polygon","coordinates":[[[-52.4645,-23.4546],[-52.4746,-23.4071],[-52.5398,-23.3666],[-52.5735,-23.332],[-52.6006,-23.3171],[-52.638,-23.3317],[-52.6901,-23.3112],[-52.7234,-23.3111],[-52.7637,-23.2959],[-52.7865,-23.2697],[-52.8459,-23.2781],[-52.863,-23.2679],[-52.9182,-23.2723],[-52.9352,-23.2625],[-52.9305,-23.2404],[-52.9093,-23.2257],[-52.9042,-23.1791],[-52.9187,-23.0831],[-52.8846,-23.023],[-52.8259,-23.0581],[-52.7889,-23.0055],[-52.8159,-22.9678],[-52.8354,-22.9839],[-52.8863,-22.9408],[-52.8768,-22.903],[-52.8558,-22.8803],[-52.8577,-22.821],[-52.8493,-22.7824],[-52.8437,-22.7514],[-52.8157,-22.7094],[-52.7784,-22.6623],[-52.7829,-22.6021],[-52.7643,-22.6086],[-52.6971,-22.627],[-52.5893,-22.5661],[-52.5378,-22.616],[-52.4988,-22.6342],[-52.4457,-22.6083],[-52.4214,-22.6106],[-52.3805,-22.6265],[-52.3004,-22.6354],[-52.29,-22.6282],[-52.2504,-22.6154],[-52.2281,-22.6425],[-52.2226,-22.6755],[-52.1828,-22.6554],[-52.1567,-22.6447],[-52.1523,-22.5692],[-52.1356,-22.5269],[-52.1092,-22.5163],[-52.0329,-22.5392],[-52.0284,-22.5395],[-51.9405,-22.5673],[-51.9015,-22.6019],[-51.8902,-22.6132],[-51.8558,-22.6317],[-51.8665,-22.6877],[-51.8671,-22.8301],[-51.9058,-22.8362],[-51.9205,-22.8033],[-51.9792,-22.7483],[-52.0334,-22.6773],[-52.0579,-22.695],[-52.056,-22.7293],[-52.0538,-22.7535],[-52.0886,-22.7697],[-52.0692,-22.8097],[-52.0777,-22.8667],[-52.0662,-22.8769],[-52.0752,-22.9176],[-52.0585,-22.9538],[-52.0425,-22.9493],[-52.0237,-23.0022],[-52.0369,-23.0221],[-52.0275,-23.0596],[-52.0828,-23.0905],[-52.1536,-23.104],[-52.1081,-23.1902],[-52.1444,-23.2121],[-52.1882,-23.2623],[-52.2187,-23.248],[-52.244,-23.2682],[-52.3439,-23.3001],[-52.3988,-23.2788],[-52.4208,-23.2508],[-52.4212,-23.2661],[-52.4212,-23.4133],[-52.422,-23.4697],[-52.4645,-23.4546]]]},"properties":{"nome":"PARANAVAI","municipios":["4100608","4100905","4106704","4108908","4110300","4110904","4112603","4115903","4116505","4116901","4118006","4118105","4118303","4118402","4123600","4124202","4124608","4124905","4126702","4127304","4128302"],"n_municipios":21}},{"type":"Feature","geometry":{"type":"Polygon","coordinates":[[[-52.557,-26.4078],[-52.5958,-26.4161],[-52.645,-26.3809],[-52.6802,-26.3527],[-52.7006,-26.358],[-52.7378,-26.3422],[-52.7628,-26.3536],[-52.8469,-26.3444],[-52.9083,-26.3594],[-52.8979,-26.3057],[-52.9279,-26.2585],[-52.8788,-26.2419],[-52.849,-26.2022],[-52.8496,-26.1713],[-52.82,-26.1467],[-52.9331,-26.0888],[-52.93,-26.0709],[-52.9144,-26.0244],[-52.893,-26.0025],[-52.9416,-26.0071],[-52.9528,-25.9629],[-52.9181,-25.9425],[-52.8872,-25.9497],[-52.8428,-25.9115],[-52.867,-25.8658],[-52.8538,-25.8313],[-52.8957,-25.8307],[-52.9051,-25.8051],[-52.9444,-25.7825],[-52.867,-25.7686],[-52.8116,-25.7403],[-52.8484,-25.7037],[-52.8551,-25.6586],[-52.84,-25.6334],[-52.857,-25.6029],[-52.8001,-25.5956],[-52.7851,-25.567],[-52.7832,-25.57],[-52.767,-25.6107],[-52.7221,-25.6267],[-52.7153,-25.6649],[-52.6768,-25.6557],[-52.6278,-25.655],[-52.6193,-25.6296],[-52.5753,-25.6487],[-52.5442,-25.6962],[-52.5217,-25.6804],[-52.5306,-25.646],[-52.4671,-25.6787],[-52.4312,-25.6791],[-52.3953,-25.7003],[-52.3544,-25.7031],[-52.3274,-25.6786],[-52.296,-25.7087],[-52.2331,-25.7404],[-52.214,-25.7565],[-52.1698,-25.749],[-52.1232,-25.7747],[-52.1686,-25.833],[-52.1434,-25.8908],[-52.1095,-25.8976],[-52.0868,-25.9377],[-52.049,-25.938],[-52.0134,-25.9791],[-52.0084,-26.0107],[-51.9661,-25.9883],[-51.916,-25.9974],[-51.8654,-26.0262],[-51.7955,-25.9994],[-51.7685,-26.0114],[-51.7395,-25.9946],[-51.723,-26.0069],[-51.7383,-26.0493],[-51.6962,-26.1042],[-51.7308,-26.1976],[-51.7796,-26.2221],[-51.7718,-26.2508],[-51.7254,-26.2589],[-51.6936,-26.2461],[-51.629,-26.2902],[-51.5778,-26.2934],[-51.5913,-26.328],[-51.5638,-26.3669],[-51.5727,-26.389],[-51.5332,-26.4386],[-51.5164,-26.4755],[-51.5291,-26.5132],[-51.5121,-26.5817],[-51.5356,-26.5918],[-51.6325,-26.5872],[-51.6585,-26.5654],[-51.6927,-26.5805],[-51.7376,-26.573],[-51.7839,-26.5881],[-51.824,-26.5819],[-51.8779,-26.5976],[-51.9003,-26.5793],[-52.0088,-26.5666],[-52.0291,-26.5469],[-52.0814,-26.5251],[-52.1116,-26.475],[-52.1588,-26.4662],[-52.1863,-26.4451],[-52.2298,-26.467],[-52.277,-26.4612],[-52.3044,-26.4407],[-52.3796,-26.4386],[-52.4031,-26.4282],[-52.4426,-26.4381],[-52.4636,-26.4396],[-52.5232,-26.3996],[-52.557,-26.4078]]]},"properties":{"nome":"PATO BRANCO","municipios":["4103222","4105409","4105706","4106456","4106506","4109658","4111209","4114401","4115309","4117602","4118501","4124806","4126272","4126652","4128708"],"n_municipios":15}},{"type":"Feature","geometry":{"type":"Polygon","coordinates":[[[-51.6965,-25.0455],[-51.7495,-25.0422],[-51.7729,-25.0237],[-51.8072,-25.019],[-51.8337,-24.9975],[-51.8948,-25.0159],[-51.9467,-25.006],[-51.9785,-25.0215],[-52.0269,-24.9886],[-52.0777,-24.9974],[-52.1058,-24.9654],[-52.1499,-24.9682],[-52.1883,-24.9816],[-52.2405,-24.9914],[-52.2471,-25.014],[-52.2956,-24.9919],[-52.3311,-25.025],[-52.3532,-25.0675],[-52.4056,-25.0564],[-52.4117,-25.0186],[-52.4564,-25.0276],[-52.5138,-25.0251],[-52.5553,-25.0351],[-52.5683,-24.9661],[-52.5919,-24.9645],[-52.6558,-24.9294],[-52.6017,-24.8786],[-52.5372,-24.8401],[-52.5409,-24.7698],[-52.4896,-24.7398],[-52.4531,-24.7463],[-52.4252,-24.7127],[-52.3941,-24.7166],[-52.3706,-24.6955],[-52.3259,-24.6807],[-52.2732,-24.643],[-52.2074,-24.6177],[-52.1341,-24.6253],[-52.0946,-24.5968],[-52.0475,-24.5667],[-52.0447,-24.5338],[-52.0166,-24.4718],[-52.034,-24.4141],[-52.0221,-24.4119],[-52.0065,-24.3442],[-51.9885,-24.3207],[-51.9974,-24.2861],[-51.9538,-24.2468],[-51.9329,-24.2642],[-51.9341,-24.3018],[-51.916,-24.3259],[-51.8887,-24.4],[-51.8457,-24.4195],[-51.8245,-24.4498],[-51.7571,-24.5294],[-51.7249,-24.5961],[-51.6621,-24.5846],[-51.6046,-24.5559],[-51.5602,-24.575],[-51.5337,-24.554],[-51.5022,-24.5748],[-51.4684,-24.555],[-51.4549,-24.5811],[-51.4891,-24.6259],[-51.4719,-24.6475],[-51.4167,-24.7222],[-51.4101,-24.7563],[-51.4597,-24.837],[-51.4454,-24.8584],[-51.5191,-24.9435],[-51.5688,-24.9637],[-51.617,-24.9987],[-51.6591,-25.0135],[-51.6965,-25.0455]]]},"properties":{"nome":"PITANGA","municipios":["4103040","4113254","4115739","4117271","4117800","4119608","4123857"],"n_municipios":7}},{"type":"Feature","geometry":{"type":"Polygon","coordinates":[[[-50.4252,-25.6321],[-50.4243,-25.5919],[-50.3585,-25.5278],[-50.3584,-25.5277],[-50.3415,-25.454],[-50.3052,-25.3804],[-50.277,-25.377],[-50.2874,-25.3189],[-50.2761,-25.2886],[-50.2668,-25.2369],[-50.2805,-25.2118],[-50.2735,-25.1465],[-50.3221,-25.1352],[-50.3706,-25.097],[-50.3941,-25.119],[-50.3872,-25.151],[-50.41,-25.169],[-50.431,-25.2143],[-50.4485,-25.215],[-50.4919,-25.2072],[-50.5431,-25.2147],[-50.5755,-25.2436],[-50.5641,-25.3091],[-50.5994,-25.369],[-50.6019,-25.4107],[-50.6707,-25.3677],[-50.727,-25.3549],[-50.7867,-25.3817],[-50.8129,-25.3526],[-50.8045,-25.2737],[-50.7519,-25.2589],[-50.7287,-25.1814],[-50.7688,-25.1592],[-50.7956,-25.1598],[-50.8471,-25.0961],[-50.886,-25.0737],[-50.9382,-25.0728],[-50.9528,-25.0715],[-50.9705,-25.0055],[-51.0005,-25.0038],[-51.0176,-24.9691],[-50.988,-24.964],[-50.9629,-24.933],[-51.0018,-24.8628],[-50.9453,-24.8427],[-50.8759,-24.8319],[-50.8631,-24.7943],[-50.8355,-24.7824],[-50.8108,-24.747],[-50.7862,-24.7532],[-50.7691,-24.7091],[-50.783,-24.6875],[-50.7606,-24.6403],[-50.7368,-24.621],[-50.7502,-24.589],[-50.7199,-24.5599],[-50.6824,-24.5134],[-50.6551,-24.4531],[-50.6559,-24.4274],[-50.6167,-24.416],[-50.6049,-24.3947],[-50.5827,-24.4195],[-50.5495,-24.41],[-50.4813,-24.4705],[-50.4294,-24.4199],[-50.372,-24.3992],[-50.3592,-24.3758],[-50.3115,-24.3622],[-50.2462,-24.4197],[-50.21,-24.4262],[-50.1742,-24.4244],[-50.1411,-24.4005],[-50.152,-24.3596],[-50.1473,-24.3072],[-50.1694,-24.29],[-50.1237,-24.3014],[-50.0431,-24.2643],[-49.9861,-24.2454],[-49.9608,-24.3115],[-49.9497,-24.3702],[-49.8936,-24.3617],[-49.8477,-24.3891],[-49.8191,-24.4454],[-49.7981,-24.4608],[-49.739,-24.4452],[-49.6353,-24.4966],[-49.6202,-24.6048],[-49.5736,-24.6137],[-49.5917,-24.6363],[-49.6415,-24.642],[-49.6204,-24.6827],[-49.5735,-24.668],[-49.5298,-24.7156],[-49.5674,-24.7955],[-49.5389,-24.8188],[-49.5284,-24.8621],[-49.4988,-24.9053],[-49.5395,-24.9165],[-49.5749,-24.9594],[-49.6042,-24.9865],[-49.6402,-25.0075],[-49.6657,-25.0006],[-49.7049,-25.0291],[-49.7428,-25.0792],[-49.7316,-25.1272],[-49.6827,-25.1653],[-49.6929,-25.1945],[-49.7308,-25.2244],[-49.773,-25.1954],[-49.8159,-25.2253],[-49.8492,-25.2339],[-49.8197,-25.2701],[-49.7566,-25.3606],[-49.7412,-25.4084],[-49.7672,-25.4667],[-49.799,-25.4974],[-49.8094,-25.5538],[-49.877,-25.5444],[-49.8792,-25.5717],[-49.9385,-25.6069],[-49.986,-25.5997],[-50.0268,-25.6043],[-50.0653,-25.651],[-50.0952,-25.6354],[-50.1307,-25.6604],[-50.1356,-25.6956],[-50.1632,-25.7593],[-50.1898,-25.7647],[-50.2282,-25.8128],[-50.2635,-25.8396],[-50.2686,-25.8051],[-50.3102,-25.7596],[-50.3615,-25.7294],[-50.3981,-25.7498],[-50.4158,-25.72],[-50.49,-25.7346],[-50.4561,-25.6833],[-50.4751,-25.6556],[-50.4252,-25.6321]]]},"properties":{"nome":"PONTA GROSSA","municipios":["4104659","4104907","4110102","4110508","4111407","4117701","4119400","4119905","4120101","4125100","4127502"],"n_municipios":11}},{"type":"Feature","geometry":{"type":"Polygon","coordinates":[[[-50.7368,-24.621],[-50.7606,-24.6403],[-50.783,-24.6875],[-50.7691,-24.7091],[-50.7862,-24.7532],[-50.8108,-24.747],[-50.8355,-24.7824],[-50.8631,-24.7943],[-50.8759,-24.8319],[-50.9453,-24.8427],[-51.0018,-24.8628],[-51.0288,-24.8551],[-51.0669,-24.8159],[-51.064,-24.6914],[-51.0795,-24.6443],[-51.1319,-24.6161],[-51.1315,-24.5808],[-51.1592,-24.5682],[-51.1661,-24.4885],[-51.139,-24.4681],[-51.1436,-24.4406],[-51.1044,-24.4147],[-51.0779,-24.3523],[-51.098,-24.3258],[-51.0983,-24.2996],[-51.1316,-24.2681],[-51.2039,-24.2459],[-51.2073,-24.223],[-51.2598,-24.2124],[-51.3338,-24.1589],[-51.3725,-24.1426],[-51.3129,-24.1295],[-51.2805,-24.0982],[-51.2344,-24.0865],[-51.2111,-24.1057],[-51.178,-24.1004],[-51.1332,-24.0696],[-51.0854,-24.0744],[-51.0955,-23.988],[-51.1126,-23.9427],[-51.0819,-23.906],[-51.0165,-23.9187],[-50.9515,-23.8839],[-50.9609,-23.867],[-50.8991,-23.7956],[-50.8958,-23.8402],[-50.8574,-23.8684],[-50.8437,-23.8944],[-50.8049,-23.8764],[-50.7735,-23.8712],[-50.7331,-23.8233],[-50.6766,-23.8145],[-50.6457,-23.8209],[-50.6259,-23.7998],[-50.6008,-23.7428],[-50.5586,-23.7481],[-50.5193,-23.7661],[-50.4752,-23.7503],[-50.4498,-23.7561],[-50.4187,-23.7844],[-50.4323,-23.8441],[-50.4686,-23.855],[-50.4793,-23.8799],[-50.4833,-23.9515],[-50.4261,-23.9578],[-50.3984,-23.9208],[-50.3836,-23.8592],[-50.3563,-23.8783],[-50.3219,-23.9444],[-50.2903,-23.959],[-50.2325,-23.9713],[-50.2208,-23.9975],[-50.1818,-24.0289],[-50.1319,-24.0477],[-50.1075,-24.0769],[-50.0967,-24.1197],[-50.1208,-24.143],[-50.1847,-24.1728],[-50.206,-24.2443],[-50.1694,-24.29],[-50.1473,-24.3072],[-50.152,-24.3596],[-50.1411,-24.4005],[-50.1742,-24.4244],[-50.21,-24.4262],[-50.2462,-24.4197],[-50.3115,-24.3622],[-50.3592,-24.3758],[-50.372,-24.3992],[-50.4294,-24.4199],[-50.4813,-24.4705],[-50.5495,-24.41],[-50.5827,-24.4195],[-50.6049,-24.3947],[-50.6167,-24.416],[-50.6559,-24.4274],[-50.6551,-24.4531],[-50.6824,-24.5134],[-50.7199,-24.5599],[-50.7502,-24.589],[-50.7368,-24.621]]]},"properties":{"nome":"TELEMACO BORBA","municipios":["4107009","4110078","4117305","4121703","4126207","4127106","4128534"],"n_municipios":7}},{"type":"Feature","geometry":{"type":"Polygon","coordinates":[[[-53.9655,-25.0765],[-53.9847,-25.0778],[-54.0127,-25.0296],[-54.0699,-25.0376],[-54.1683,-25.0305],[-54.1644,-25.0177],[-54.2994,-25.0208],[-54.4015,-25.0339],[-54.4572,-25.0393],[-54.437,-24.9414],[-54.395,-24.8113],[-54.3899,-24.7773],[-54.3323,-24.6945],[-54.3269,-24.6595],[-54.3185,-24.5907],[-54.3361,-24.508],[-54.3265,-24.4652],[-54.2956,-24.4276],[-54.2616,-24.375],[-54.2578,-24.3553],[-54.2774,-24.2914],[-54.3226,-24.2517],[-54.3275,-24.1964],[-54.3456,-24.157],[-54.3342,-24.1164],[-54.2862,-24.0682],[-54.2495,-24.0559],[-54.169,-23.999],[-54.0985,-24.025],[-54.0558,-24.0365],[-54.0172,-24.0153],[-53.9984,-23.9857],[-53.9662,-24.0024],[-53.9681,-24.0236],[-53.9896,-24.0654],[-53.9886,-24.1267],[-53.9586,-24.1204],[-53.9104,-24.1382],[-53.9015,-24.1786],[-53.8592,-24.1912],[-53.8355,-24.1679],[-53.7657,-24.1599],[-53.709,-24.1791],[-53.6924,-24.2023],[-53.6976,-24.2387],[-53.6717,-24.2587],[-53.6927,-24.2842],[-53.7041,-24.328],[-53.6676,-24.3879],[-53.6916,-24.4402],[-53.7154,-24.4675],[-53.7154,-24.5751],[-53.596,-24.6895],[-53.5371,-24.7468],[-53.5744,-24.8032],[-53.6842,-24.7799],[-53.691,-24.8132],[-53.6546,-24.8678],[-53.625,-24.8709],[-53.6366,-24.9339],[-53.6844,-24.9398],[-53.6744,-24.9578],[-53.7325,-24.9996],[-53.7721,-24.9689],[-53.8113,-24.9766],[-53.8467,-24.9715],[-53.8961,-24.9842],[-53.9216,-24.9469],[-53.9104,-24.9085],[-53.9982,-24.9081],[-54.0446,-24.8907],[-54.0344,-24.9299],[-53.9655,-25.0765]]]},"properties":{"nome":"TOLEDO","municipios":["4107157","4107538","4108809","4114609","4115358","4115853","4117222","4117453","4117909","4118451","4120853","4123501","4125456","4125753","4127403","4127700"],"n_municipios":16}},{"type":"Feature","geometry":{"type":"Polygon","coordinates":[[[-53.9104,-24.1382],[-53.9586,-24.1204],[-53.9886,-24.1267],[-53.9896,-24.0654],[-53.9681,-24.0236],[-53.9662,-24.0024],[-53.9984,-23.9857],[-54.0172,-24.0153],[-54.0558,-24.0365],[-54.0985,-24.025],[-54.169,-23.999],[-54.1403,-23.9884],[-54.1018,-23.952],[-54.0805,-23.8913],[-54.084,-23.865],[-54.0836,-23.8055],[-54.0757,-23.7645],[-54.0519,-23.7211],[-54.0511,-23.6872],[-54.0306,-23.6282],[-53.9874,-23.4666],[-53.9602,-23.4434],[-53.9321,-23.4459],[-53.7622,-23.3593],[-53.7149,-23.2834],[-53.6987,-23.3058],[-53.629,-23.2699],[-53.6354,-23.2414],[-53.6154,-23.211],[-53.582,-23.2262],[-53.5574,-23.216],[-53.5157,-23.1975],[-53.4768,-23.2277],[-53.4142,-23.1913],[-53.3781,-23.2409],[-53.3778,-23.2407],[-53.3763,-23.2398],[-53.3478,-23.2335],[-53.2985,-23.1986],[-53.2534,-23.2308],[-53.2018,-23.2417],[-53.2252,-23.2094],[-53.2036,-23.1949],[-53.2076,-23.2114],[-53.1294,-23.2208],[-53.093,-23.2435],[-53.0474,-23.2311],[-53.0267,-23.1954],[-53.0335,-23.2139],[-52.9982,-23.2361],[-53.0255,-23.2911],[-53.028,-23.3562],[-53.0362,-23.3839],[-53.0236,-23.4763],[-53.0397,-23.4931],[-53.0476,-23.547],[-53.0168,-23.6115],[-53.0201,-23.6775],[-52.9992,-23.7076],[-52.9708,-23.7089],[-52.9582,-23.7428],[-52.9596,-23.7855],[-53.0264,-23.8637],[-52.9638,-23.9649],[-53.0516,-23.9374],[-53.1072,-23.9286],[-53.1639,-23.912],[-53.2074,-23.9203],[-53.2376,-23.9598],[-53.2933,-24.0363],[-53.321,-24.0916],[-53.326,-24.1295],[-53.3119,-24.1712],[-53.3208,-24.1984],[-53.3621,-24.2517],[-53.4368,-24.2381],[-53.4681,-24.2212],[-53.4811,-24.2181],[-53.4363,-24.112],[-53.5191,-24.0504],[-53.5557,-24.0911],[-53.6666,-24.2088],[-53.6924,-24.2023],[-53.709,-24.1791],[-53.7657,-24.1599],[-53.8355,-24.1679],[-53.8592,-24.1912],[-53.9015,-24.1786],[-53.9104,-24.1382]]]},"properties":{"nome":"UMUARAMA","municipios":["4100509","4100707","4103479","4106605","4107256","4107520","4108320","4109906","4110607","4111555","4114708","4117206","4118857","4118907","4125357","4126900","4128104","4128625","4128807"],"n_municipios":19}},{"type":"Feature","geometry":{"type":"Polygon","coordinates":[[[-51.2532,-26.4621],[-51.2732,-26.4983],[-51.2281,-26.5546],[-51.2221,-26.5937],[-51.2389,-26.6279],[-51.2834,-26.6536],[-51.347,-26.6486],[-51.3911,-26.6632],[-51.4115,-26.7171],[-51.4549,-26.6407],[-51.4954,-26.5874],[-51.5121,-26.5817],[-51.5291,-26.5132],[-51.5164,-26.4755],[-51.5332,-26.4386],[-51.5727,-26.389],[-51.5638,-26.3669],[-51.5913,-26.328],[-51.5778,-26.2934],[-51.629,-26.2902],[-51.6936,-26.2461],[-51.7254,-26.2589],[-51.7718,-26.2508],[-51.7796,-26.2221],[-51.7308,-26.1976],[-51.6962,-26.1042],[-51.7383,-26.0493],[-51.723,-26.0069],[-51.7395,-25.9946],[-51.743,-25.9707],[-51.7142,-25.9217],[-51.6808,-25.9328],[-51.7096,-25.9781],[-51.6677,-26.0103],[-51.6192,-26.0037],[-51.5505,-25.9869],[-51.5029,-25.9427],[-51.4492,-25.9514],[-51.4127,-25.9247],[-51.3815,-25.9341],[-51.3806,-25.8945],[-51.303,-25.8331],[-51.2817,-25.7916],[-51.2578,-25.8066],[-51.1714,-25.7458],[-51.1321,-25.7632],[-51.1165,-25.7203],[-51.0532,-25.6991],[-51.0201,-25.7058],[-51.0097,-25.6746],[-50.9634,-25.6826],[-50.9564,-25.6866],[-50.943,-25.7399],[-50.9759,-25.7566],[-50.9824,-25.7844],[-51.0399,-25.8075],[-51.0059,-25.8665],[-51.0064,-25.9075],[-50.9722,-25.9329],[-50.9375,-25.9406],[-50.9528,-25.9766],[-50.9302,-26.0274],[-50.8975,-26.0572],[-50.8871,-26.0078],[-50.8543,-25.9949],[-50.7436,-25.9876],[-50.707,-25.9952],[-50.6706,-25.9688],[-50.657,-25.9173],[-50.677,-25.8736],[-50.6266,-25.8483],[-50.6008,-25.7842],[-50.5932,-25.7598],[-50.5385,-25.7581],[-50.49,-25.7346],[-50.4158,-25.72],[-50.3981,-25.7498],[-50.3615,-25.7294],[-50.3102,-25.7596],[-50.2686,-25.8051],[-50.2635,-25.8396],[-50.2282,-25.8128],[-50.2102,-25.8163],[-50.1434,-25.8875],[-50.0832,-25.8994],[-50.0401,-25.879],[-50.0131,-25.8947],[-50.0112,-25.931],[-49.9733,-25.9591],[-49.9678,-26.0051],[-49.9934,-26.0114],[-50.1242,-26.0508],[-50.1402,-26.0266],[-50.1898,-26.07],[-50.2223,-26.0602],[-50.2475,-26.0304],[-50.2685,-26.0428],[-50.332,-26.0854],[-50.3217,-26.1339],[-50.3657,-26.1121],[-50.3717,-26.0792],[-50.4295,-26.063],[-50.4609,-26.0263],[-50.5133,-26.0261],[-50.5509,-26.0383],[-50.5535,-26.0594],[-50.5948,-26.0704],[-50.6285,-26.0628],[-50.6562,-26.1008],[-50.6502,-26.1325],[-50.6828,-26.1536],[-50.6975,-26.1818],[-50.7033,-26.188],[-50.7299,-26.2034],[-50.7156,-26.2446],[-50.7459,-26.2468],[-50.7627,-26.222],[-50.7999,-26.2313],[-50.8469,-26.2664],[-50.8997,-26.2893],[-50.9095,-26.2494],[-50.9436,-26.2438],[-50.9713,-26.2613],[-50.9915,-26.235],[-51.0568,-26.2439],[-51.0774,-26.2312],[-51.1018,-26.2727],[-51.1484,-26.2788],[-51.2029,-26.2982],[-51.2522,-26.3515],[-51.2704,-26.3869],[-51.2929,-26.4341],[-51.2532,-26.4621]]]},"properties":{"nome":"UNIAO DA VITORIA","municipios":["4101309","4102901","4106803","4108502","4118600","4118709","4120309","4125605","4128203"],"n_municipios":9}},{"type":"Feature","geometry":{"type":"Polygon","coordinates":[[[-49.5736,-24.6137],[-49.6202,-24.6048],[-49.6353,-24.4966],[-49.739,-24.4452],[-49.7981,-24.4608],[-49.8191,-24.4454],[-49.8477,-24.3891],[-49.8936,-24.3617],[-49.9497,-24.3702],[-49.9608,-24.3115],[-49.9861,-24.2454],[-50.0431,-24.2643],[-50.1237,-24.3014],[-50.1694,-24.29],[-50.206,-24.2443],[-50.1847,-24.1728],[-50.1208,-24.143],[-50.0967,-24.1197],[-50.1075,-24.0769],[-50.1319,-24.0477],[-50.1818,-24.0289],[-50.2208,-23.9975],[-50.1617,-23.9421],[-50.1183,-23.9621],[-50.0815,-23.9611],[-50.0421,-23.9897],[-49.9934,-23.9762],[-49.9704,-23.9564],[-49.9731,-23.9021],[-49.9648,-23.8697],[-49.9235,-23.8438],[-49.8815,-23.8332],[-49.8256,-23.7656],[-49.7624,-23.7371],[-49.7381,-23.7141],[-49.7479,-23.658],[-49.7845,-23.6296],[-49.7806,-23.6121],[-49.673,-23.6001],[-49.6524,-23.5467],[-49.6242,-23.5233],[-49.6002,-23.5356],[-49.6028,-23.584],[-49.621,-23.6111],[-49.6021,-23.6521],[-49.5747,-23.676],[-49.5492,-23.704],[-49.5673,-23.7368],[-49.5597,-23.7936],[-49.5727,-23.827],[-49.608,-23.8394],[-49.587,-23.8889],[-49.5358,-23.9282],[-49.5223,-23.9166],[-49.4923,-23.9934],[-49.4575,-24.0495],[-49.4298,-24.0687],[-49.4087,-24.1069],[-49.3366,-24.1376],[-49.3507,-24.2208],[-49.3054,-24.2514],[-49.2869,-24.3026],[-49.2542,-24.3179],[-49.2011,-24.3451],[-49.2535,-24.405],[-49.2524,-24.4339],[-49.2757,-24.4169],[-49.3468,-24.4585],[-49.3592,-24.4777],[-49.4912,-24.5518],[-49.5107,-24.6142],[-49.5392,-24.572],[-49.5736,-24.6137]]]},"properties":{"nome":"WENCESLAU BRAZ","municipios":["4101606","4112009","4122909","4124004","4125407","4126306","4128500"],"n_municipios":7}}]}